[{"OBJECT_NAME":"IRIDIUM 129","OBJECT_ID":"2017-061D","EPOCH":"2026-03-09T22:44:30.673536","MEAN_MOTION":14.34217481,"ECCENTRICITY":0.0002338,"INCLINATION":86.3914,"RA_OF_ASC_NODE":66.7388,"ARG_OF_PERICENTER":83.3381,"MEAN_ANOMALY":276.8081,"EPHEMERIS_TYPE":0,"CLASSIFICATION_TYPE":"U","NORAD_CAT_ID":42958,"ELEMENT_SET_NO":999,"REV_AT_EPOCH":44057,"BSTAR":-5.174136e-6,"MEAN_MOTION_DOT":5.0e-8,"MEAN_MOTION_DDOT":0},{"OBJECT_NAME":"SL-16 DEB","OBJECT_ID":"1996-051P","EPOCH":"2026-03-08T11:37:44.124672","MEAN_MOTION":14.14146613,"ECCENTRICITY":0.00949442,"INCLINATION":71.1921,"RA_OF_ASC_NODE":158.1252,"ARG_OF_PERICENTER":255.7306,"MEAN_ANOMALY":103.326,"EPHEMERIS_TYPE":0,"CLASSIFICATION_TYPE":"U","NORAD_CAT_ID":43354,"ELEMENT_SET_NO":999,"REV_AT_EPOCH":63417,"BSTAR":0.00023104442,"MEAN_MOTION_DOT":4.13e-6,"MEAN_MOTION_DDOT":0}]
